CCSDS_OMM_VERS = 2.0
CREATION_DATE  = 
ORIGINATOR     = 

OBJECT_NAME    = RASSVET-3 14
OBJECT_ID      = 2026-061P
CENTER_NAME    = EARTH
REF_FRAME      = TEME
TIME_SYSTEM    = UTC
MEAN_ELEMENT_THEORY = SGP/SGP4

EPOCH          = 2026-04-02T14:36:13.040064
MEAN_MOTION    = 15.89091848
ECCENTRICITY   = .0025836
INCLINATION    = 82.2968
RA_OF_ASC_NODE = 97.4997
ARG_OF_PERICENTER = 37.1973
MEAN_ANOMALY   = 323.1081

EPHEMERIS_TYPE = 0
CLASSIFICATION_TYPE = U
NORAD_CAT_ID   = 68373
ELEMENT_SET_NO = 999
REV_AT_EPOCH   = 157
BSTAR          = .2948E-3
MEAN_MOTION_DOT = .86561E-3
MEAN_MOTION_DDOT = .14551E-5

CCSDS_OMM_VERS = 2.0
CREATION_DATE  = 
ORIGINATOR     = 

OBJECT_NAME    = RASSVET-3 15
OBJECT_ID      = 2026-061Q
CENTER_NAME    = EARTH
REF_FRAME      = TEME
TIME_SYSTEM    = UTC
MEAN_ELEMENT_THEORY = SGP/SGP4

EPOCH          = 2026-03-31T15:44:51.780768
MEAN_MOTION    = 15.88835235
ECCENTRICITY   = .00260596
INCLINATION    = 82.2970
RA_OF_ASC_NODE = 99.7096
ARG_OF_PERICENTER = 44.1575
MEAN_ANOMALY   = 316.1770

EPHEMERIS_TYPE = 0
CLASSIFICATION_TYPE = U
NORAD_CAT_ID   = 68374
ELEMENT_SET_NO = 999
REV_AT_EPOCH   = 126
BSTAR          = .22470769E-3
MEAN_MOTION_DOT = .65252E-3
MEAN_MOTION_DDOT = .33249E-6

CCSDS_OMM_VERS = 2.0
CREATION_DATE  = 
ORIGINATOR     = 

OBJECT_NAME    = RASSVET-3 16
OBJECT_ID      = 2026-061R
CENTER_NAME    = EARTH
REF_FRAME      = TEME
TIME_SYSTEM    = UTC
MEAN_ELEMENT_THEORY = SGP/SGP4

EPOCH          = 2026-04-02T19:06:11.199744
MEAN_MOTION    = 15.89747619
ECCENTRICITY   = .0024831
INCLINATION    = 82.2959
RA_OF_ASC_NODE = 97.2829
ARG_OF_PERICENTER = 37.1583
MEAN_ANOMALY   = 323.1401

EPHEMERIS_TYPE = 0
CLASSIFICATION_TYPE = U
NORAD_CAT_ID   = 68375
ELEMENT_SET_NO = 999
REV_AT_EPOCH   = 160
BSTAR          = .45935E-3
MEAN_MOTION_DOT = .138896E-2
MEAN_MOTION_DDOT = .56293E-5

CCSDS_OMM_VERS = 2.0
CREATION_DATE  = 
ORIGINATOR     = 

OBJECT_NAME    = SUPERVIEW NEO-2 OBJECT A
OBJECT_ID      = 2026-062A
CENTER_NAME    = EARTH
REF_FRAME      = TEME
TIME_SYSTEM    = UTC
MEAN_ELEMENT_THEORY = SGP/SGP4

EPOCH          = 2026-04-02T21:26:38.863968
MEAN_MOTION    = 15.20606398
ECCENTRICITY   = .0006431
INCLINATION    = 97.4366
RA_OF_ASC_NODE = 101.2682
ARG_OF_PERICENTER = 236.6518
MEAN_ANOMALY   = 123.4102

EPHEMERIS_TYPE = 0
CLASSIFICATION_TYPE = U
NORAD_CAT_ID   = 68377
ELEMENT_SET_NO = 999
REV_AT_EPOCH   = 121
BSTAR          = .18358E-3
MEAN_MOTION_DOT = .3957E-4
MEAN_MOTION_DDOT = 0

CCSDS_OMM_VERS = 2.0
CREATION_DATE  = 
ORIGINATOR     = 

OBJECT_NAME    = SUPERVIEW NEO-2 OBJECT B
OBJECT_ID      = 2026-062B
CENTER_NAME    = EARTH
REF_FRAME      = TEME
TIME_SYSTEM    = UTC
MEAN_ELEMENT_THEORY = SGP/SGP4

EPOCH          = 2026-03-31T17:19:08.069952
MEAN_MOTION    = 15.20585060
ECCENTRICITY   = .00089524
INCLINATION    = 97.4347
RA_OF_ASC_NODE = 99.1253
ARG_OF_PERICENTER = 250.4427
MEAN_ANOMALY   = 109.5842

EPHEMERIS_TYPE = 0
CLASSIFICATION_TYPE = U
NORAD_CAT_ID   = 68378
ELEMENT_SET_NO = 999
REV_AT_EPOCH   = 88
BSTAR          = .19790811E-3
MEAN_MOTION_DOT = .427E-4
MEAN_MOTION_DDOT = 0

CCSDS_OMM_VERS = 2.0
CREATION_DATE  = 
ORIGINATOR     = 

OBJECT_NAME    = CZ-2D R/B
OBJECT_ID      = 2026-062C
CENTER_NAME    = EARTH
REF_FRAME      = TEME
TIME_SYSTEM    = UTC
MEAN_ELEMENT_THEORY = SGP/SGP4

EPOCH          = 2026-04-02T20:07:32.606112
MEAN_MOTION    = 15.31165523
ECCENTRICITY   = .0052887
INCLINATION    = 97.4979
RA_OF_ASC_NODE = 101.2000
ARG_OF_PERICENTER = 34.2772
MEAN_ANOMALY   = 326.1863

EPHEMERIS_TYPE = 0
CLASSIFICATION_TYPE = U
NORAD_CAT_ID   = 68379
ELEMENT_SET_NO = 999
REV_AT_EPOCH   = 121
BSTAR          = .50681E-3
MEAN_MOTION_DOT = .15868E-3
MEAN_MOTION_DDOT = 0

CCSDS_OMM_VERS = 2.0
CREATION_DATE  = 
ORIGINATOR     = 

OBJECT_NAME    = STARLINK-36296
OBJECT_ID      = 2026-063A
CENTER_NAME    = EARTH
REF_FRAME      = TEME
TIME_SYSTEM    = UTC
MEAN_ELEMENT_THEORY = SGP/SGP4

EPOCH          = 2026-04-02T18:00:01.999296
MEAN_MOTION    = 15.97982213
ECCENTRICITY   = .0001508
INCLINATION    = 97.2834
RA_OF_ASC_NODE = 233.5389
ARG_OF_PERICENTER = 67.8630
MEAN_ANOMALY   = 74.8208

EPHEMERIS_TYPE = 0
CLASSIFICATION_TYPE = U
NORAD_CAT_ID   = 68380
ELEMENT_SET_NO = 999
REV_AT_EPOCH   = 232
BSTAR          = -.3847E-2
MEAN_MOTION_DOT = -.1726598E-1
MEAN_MOTION_DDOT = .88222E-3

CCSDS_OMM_VERS = 2.0
CREATION_DATE  = 
ORIGINATOR     = 

OBJECT_NAME    = STARLINK-37111
OBJECT_ID      = 2026-063B
CENTER_NAME    = EARTH
REF_FRAME      = TEME
TIME_SYSTEM    = UTC
MEAN_ELEMENT_THEORY = SGP/SGP4

EPOCH          = 2026-04-02T18:00:01.999296
MEAN_MOTION    = 15.98104329
ECCENTRICITY   = .0001572
INCLINATION    = 97.2834
RA_OF_ASC_NODE = 233.5399
ARG_OF_PERICENTER = 67.6845
MEAN_ANOMALY   = 76.8108

EPHEMERIS_TYPE = 0
CLASSIFICATION_TYPE = U
NORAD_CAT_ID   = 68381
ELEMENT_SET_NO = 999
REV_AT_EPOCH   = 232
BSTAR          = -.38169E-2
MEAN_MOTION_DOT = -.1724681E-1
MEAN_MOTION_DDOT = .88159E-3

CCSDS_OMM_VERS = 2.0
CREATION_DATE  = 
ORIGINATOR     = 

OBJECT_NAME    = STARLINK-36946
OBJECT_ID      = 2026-063C
CENTER_NAME    = EARTH
REF_FRAME      = TEME
TIME_SYSTEM    = UTC
MEAN_ELEMENT_THEORY = SGP/SGP4

EPOCH          = 2026-04-02T18:00:01.999296
MEAN_MOTION    = 15.98248988
ECCENTRICITY   = .0001481
INCLINATION    = 97.2827
RA_OF_ASC_NODE = 233.5405
ARG_OF_PERICENTER = 74.3083
MEAN_ANOMALY   = 72.6109

EPHEMERIS_TYPE = 0
CLASSIFICATION_TYPE = U
NORAD_CAT_ID   = 68382
ELEMENT_SET_NO = 999
REV_AT_EPOCH   = 232
BSTAR          = -.38222E-2
MEAN_MOTION_DOT = -.1740716E-1
MEAN_MOTION_DDOT = .89842E-3

CCSDS_OMM_VERS = 2.0
CREATION_DATE  = 
ORIGINATOR     = 

OBJECT_NAME    = STARLINK-37121
OBJECT_ID      = 2026-063D
CENTER_NAME    = EARTH
REF_FRAME      = TEME
TIME_SYSTEM    = UTC
MEAN_ELEMENT_THEORY = SGP/SGP4

EPOCH          = 2026-04-02T18:00:01.999296
MEAN_MOTION    = 15.98510861
ECCENTRICITY   = .0001608
INCLINATION    = 97.2829
RA_OF_ASC_NODE = 233.5429
ARG_OF_PERICENTER = 66.6097
MEAN_ANOMALY   = 84.9503

EPHEMERIS_TYPE = 0
CLASSIFICATION_TYPE = U
NORAD_CAT_ID   = 68383
ELEMENT_SET_NO = 999
REV_AT_EPOCH   = 232
BSTAR          = -.37639E-2
MEAN_MOTION_DOT = -.1739258E-1
MEAN_MOTION_DDOT = .89964E-3

CCSDS_OMM_VERS = 2.0
CREATION_DATE  = 
ORIGINATOR     = 

OBJECT_NAME    = STARLINK-37137
OBJECT_ID      = 2026-063E
CENTER_NAME    = EARTH
REF_FRAME      = TEME
TIME_SYSTEM    = UTC
MEAN_ELEMENT_THEORY = SGP/SGP4

EPOCH          = 2026-04-02T18:00:01.999296
MEAN_MOTION    = 15.98372709
ECCENTRICITY   = .0001639
INCLINATION    = 97.2831
RA_OF_ASC_NODE = 233.5416
ARG_OF_PERICENTER = 66.3758
MEAN_ANOMALY   = 82.6105

EPHEMERIS_TYPE = 0
CLASSIFICATION_TYPE = U
NORAD_CAT_ID   = 68384
ELEMENT_SET_NO = 999
REV_AT_EPOCH   = 232
BSTAR          = -.37777E-2
MEAN_MOTION_DOT = -.1732404E-1
MEAN_MOTION_DDOT = .89164E-3

CCSDS_OMM_VERS = 2.0
CREATION_DATE  = 
ORIGINATOR     = 

OBJECT_NAME    = STARLINK-37128
OBJECT_ID      = 2026-063F
CENTER_NAME    = EARTH
REF_FRAME      = TEME
TIME_SYSTEM    = UTC
MEAN_ELEMENT_THEORY = SGP/SGP4

EPOCH          = 2026-04-02T18:00:01.999296
MEAN_MOTION    = 15.98657525
ECCENTRICITY   = .0001616
INCLINATION    = 97.2831
RA_OF_ASC_NODE = 233.5440
ARG_OF_PERICENTER = 74.3986
MEAN_ANOMALY   = 79.7580

EPHEMERIS_TYPE = 0
CLASSIFICATION_TYPE = U
NORAD_CAT_ID   = 68385
ELEMENT_SET_NO = 999
REV_AT_EPOCH   = 227
BSTAR          = -.37773E-2
MEAN_MOTION_DOT = -.1759455E-1
MEAN_MOTION_DDOT = .92081E-3

